ISS (ZARYA)             
1 25544U 98067A   26198.83085672  .00003846  00000+0  77850-4 0  9996
2 25544  51.6316 148.4431 0006791 307.8623  52.1750 15.49035972576509
